{
    "links": {
        "self": "http://www.neowsapp.com/rest/v1/neo/3760494?api_key=iIulBulltgU6a56xZRHN4H3l9WmuAYTsLGpBGhQ2"
    },
    "id": "3760494",
    "neo_reference_id": "3760494",
    "name": "(2016 TW10)",
    "designation": "2016 TW10",
    "nasa_jpl_url": "http://ssd.jpl.nasa.gov/sbdb.cgi?sstr=3760494",
    "absolute_magnitude_h": 23.4,
    "estimated_diameter": {
        "kilometers": {
            "estimated_diameter_min": 0.0555334912,
            "estimated_diameter_max": 0.1241766613
        },
        "meters": {
            "estimated_diameter_min": 55.5334911581,
            "estimated_diameter_max": 124.1766612574
        },
        "miles": {
            "estimated_diameter_min": 0.0345069009,
            "estimated_diameter_max": 0.0771597762
        },
        "feet": {
            "estimated_diameter_min": 182.1964991311,
            "estimated_diameter_max": 407.4037573197
        }
    },
    "is_potentially_hazardous_asteroid": false,
    "close_approach_data": [
        {
            "close_approach_date": "2016-09-27",
            "close_approach_date_full": "2016-Sep-27 03:43",
            "epoch_date_close_approach": 1474947780000,
            "relative_velocity": {
                "kilometers_per_second": "12.4699964247",
                "kilometers_per_hour": "44891.9871288358",
                "miles_per_hour": "27894.1350023591"
            },
            "miss_distance": {
                "astronomical": "0.0163802791",
                "lunar": "6.3719285699",
                "kilometers": "2450454.863365517",
                "miles": "1522642.0462454546"
            },
            "orbiting_body": "Earth"
        },
        {
            "close_approach_date": "2119-09-08",
            "close_approach_date_full": "2119-Sep-08 07:00",
            "epoch_date_close_approach": 4723599600000,
            "relative_velocity": {
                "kilometers_per_second": "10.4241929517",
                "kilometers_per_hour": "37527.0946260469",
                "miles_per_hour": "23317.8772136123"
            },
            "miss_distance": {
                "astronomical": "0.086496232",
                "lunar": "33.647034248",
                "kilometers": "12939652.07022584",
                "miles": "8040326.961522992"
            },
            "orbiting_body": "Earth"
        }
    ],
    "orbital_data": {
        "orbit_id": "6",
        "orbit_determination_date": "2017-04-06 08:23:21",
        "first_observation_date": "2016-10-05",
        "last_observation_date": "2016-11-01",
        "data_arc_in_days": 27,
        "observations_used": 88,
        "orbit_uncertainty": "7",
        "minimum_orbit_intersection": ".0159581",
        "jupiter_tisserand_invariant": "3.429",
        "epoch_osculation": "2459000.5",
        "eccentricity": ".5882923785026435",
        "semi_major_axis": "2.180633391056235",
        "inclination": "4.822406400740237",
        "ascending_node_longitude": "353.2190649270224",
        "orbital_period": "1176.17627210953",
        "perihelion_distance": ".8977833867894773",
        "perihelion_argument": "327.4349719466753",
        "aphelion_distance": "3.463483395322992",
        "perihelion_time": "2458802.463668842880",
        "mean_anomaly": "60.61428113040885",
        "mean_motion": ".3060765707799242",
        "equinox": "J2000",
        "orbit_class": {
            "orbit_class_type": "APO",
            "orbit_class_description": "Near-Earth asteroid orbits which cross the Earth’s orbit similar to that of 1862 Apollo",
            "orbit_class_range": "a (semi-major axis) > 1.0 AU; q (perihelion) < 1.017 AU"
        }
    },
    "is_sentry_object": false
}